OBJECT_NAME,OBJECT_ID,EPOCH,MEAN_MOTION,ECCENTRICITY,INCLINATION,RA_OF_ASC_NODE,ARG_OF_PERICENTER,MEAN_ANOMALY,EPHEMERIS_TYPE,CLASSIFICATION_TYPE,NORAD_CAT_ID,ELEMENT_SET_NO,REV_AT_EPOCH,BSTAR,MEAN_MOTION_DOT,MEAN_MOTION_DDOT
ONEWEB-0425,2022-012G,2026-07-16T23:08:19.383936,13.10399338,.0001748,87.8823,30.3321,63.1113,297.0193,0,U,51628,999,21322,.96197E-2,.3373E-4,0
ONEWEB-0428,2022-012H,2026-07-16T13:29:15.014112,13.10374536,.0001802,87.8812,30.4193,88.2477,271.8857,0,U,51629,999,21313,-.19356E-2,-.663E-5,0
ONEWEB-0431,2022-012J,2026-07-16T23:44:49.017408,13.10371637,.0002411,87.8817,30.3269,96.4788,263.6614,0,U,51630,999,21324,.18006E-2,.641E-5,0
ONEWEB-0434,2022-012K,2026-07-16T14:03:41.761728,13.10377440,.000153,87.8824,30.4337,68.6974,291.4317,0,U,51631,999,21317,.23671E-3,.95E-6,0
ONEWEB-0435,2022-012L,2026-07-16T23:23:01.960800,13.10378952,.0001895,87.8816,30.3398,98.2886,261.8456,0,U,51632,999,21321,.10686E-2,.386E-5,0
ONEWEB-0436,2022-012M,2026-07-16T21:40:41.022048,13.17647515,.0001931,87.9156,359.9358,100.0666,260.0683,0,U,51633,999,21759,-.86351E-4,-.21E-6,0
ONEWEB-0438,2022-012N,2026-07-16T23:01:00.573024,13.10376261,.0001792,87.8816,30.3472,80.3562,279.7767,0,U,51634,999,21324,-.16411E-2,-.56E-5,0
ONEWEB-0439,2022-012P,2026-07-16T23:05:54.892896,13.10377572,.0001749,87.8820,30.3341,86.3466,273.7862,0,U,51635,999,21322,-.63975E-3,-.211E-5,0
ONEWEB-0442,2022-012Q,2026-07-16T21:29:45.553632,13.17650541,.0001677,87.9146,359.9678,74.8591,285.2726,0,U,51636,999,21758,-.11635E-3,-.32E-6,0
ONEWEB-0443,2022-012R,2026-07-16T11:01:36.061824,13.17647791,.0001529,87.9147,0.0553,98.5097,261.6208,0,U,51637,999,21757,.68228E-4,.39E-6,0
ONEWEB-0444,2022-012S,2026-07-16T22:51:14.107104,13.10374669,.0001661,87.8819,30.3348,90.9393,269.1924,0,U,51638,999,21323,-.22924E-2,-.788E-5,0
ONEWEB-0445,2022-012T,2026-07-16T23:20:34.248768,13.10379414,.0001937,87.8825,30.3207,85.4546,274.6802,0,U,51639,999,21324,.82155E-3,.299E-5,0
ONEWEB-0446,2022-012U,2026-07-16T13:39:00.715392,13.10373389,.0002149,87.8816,30.4283,82.6818,277.4553,0,U,51640,999,21317,-.14378E-2,-.489E-5,0
ONEWEB-0448,2022-012V,2026-07-16T22:56:07.312416,13.10375534,.0001795,87.8816,30.3467,87.7602,272.3731,0,U,51641,999,21319,-.22106E-2,-.759E-5,0
ONEWEB-0449,2022-012W,2026-07-16T23:03:27.365760,13.10376644,.0001831,87.8823,30.3331,67.9848,292.1473,0,U,51642,999,21320,-.8801E-3,-.295E-5,0
ONEWEB-0451,2022-012X,2026-07-16T21:35:48.799104,13.17650964,.0001688,87.9158,359.9350,89.2489,270.8836,0,U,51643,999,21757,-.11529E-4,.8E-7,0
ONEWEB-0452,2022-012Y,2026-07-16T12:26:39.187968,13.17647432,.0001554,87.9148,0.0449,92.5247,267.6062,0,U,51644,999,21753,-.79511E-4,-.18E-6,0
ONEWEB-0456,2022-012AA,2026-07-16T23:15:40.309056,13.10375503,.0001808,87.8832,30.3204,92.2780,267.8554,0,U,51646,999,21324,.39214E-3,.15E-5,0
ONEWEB-0457,2022-012AB,2026-07-16T13:33:55.996416,13.10374300,.0002094,87.8816,30.4164,79.3552,280.7811,0,U,51647,999,21319,-.25304E-2,-.871E-5,0
ONEWEB-0458,2022-012AC,2026-07-16T23:14:28.150368,13.10376261,.0001629,87.8823,30.3243,86.7201,273.4112,0,U,51648,999,21320,.26998E-3,.107E-5,0
ONEWEB-0461,2022-012AD,2026-07-17T03:33:01.596096,13.17650544,.0001924,87.9158,359.8990,90.3092,269.8260,0,U,51649,999,21783,.1425E-3,.68E-6,0
ONEWEB-0463,2022-012AE,2026-07-16T21:38:15.058752,13.17650629,.0001969,87.9147,359.9679,90.6394,269.4963,0,U,51650,999,21758,-.8256E-4,-.19E-6,0
ONEWEB-0464,2022-012AF,2026-07-16T14:01:02.220672,13.10375512,.0001604,87.8817,30.4220,94.2141,265.9169,0,U,51651,999,21317,-.58395E-4,-.8E-7,0
ONEWEB-0468,2022-012AG,2026-07-16T23:18:07.327296,13.10375156,.0001699,87.8815,30.3378,94.4866,265.6455,0,U,51652,999,21320,.62362E-3,.23E-5,0
ONEWEB-0473,2022-012AH,2026-07-16T22:58:35.211072,13.10375960,.0001873,87.8816,30.3430,90.0196,270.1146,0,U,51653,999,21320,-.126E-2,-.427E-5,0
ONEWEB-0474,2022-012AJ,2026-07-16T13:36:34.612128,13.10374712,.000158,87.8824,30.4078,94.8697,265.2611,0,U,51654,999,21314,-.1925E-2,-.659E-5,0
ONEWEB-0475,2022-012AK,2026-07-16T10:59:11.042016,13.17649203,.0001472,87.9149,0.0494,113.3559,246.7727,0,U,51655,999,21754,.16443E-3,.77E-6,0
ONEWEB-0490,2022-138A,2026-07-16T18:41:41.017344,13.19726432,.0002083,87.9192,299.0762,105.2011,254.9352,0,U,54113,999,18073,.18856E-3,.88E-6,0
ONEWEB-0492,2022-138B,2026-07-16T19:18:03.536640,13.19724089,.0002264,87.9185,299.0705,103.9064,256.2320,0,U,54114,999,18074,-.13349E-3,-.4E-6,0
ONEWEB-0495,2022-138C,2026-07-16T18:46:14.107008,13.19726424,.0002272,87.9186,299.0776,117.2279,242.9086,0,U,54115,999,18072,.79612E-4,.45E-6,0
ONEWEB-0497,2022-138D,2026-07-16T19:04:24.557952,13.19723723,.0002043,87.9192,299.0690,102.9801,257.1560,0,U,54116,999,18071,.26488E-4,.24E-6,0
