[
  {
    "name": "ONEWEB-0425",
    "noradId": "51628",
    "line1": "1 51628U 22012G   26197.96411324  .00003373  00000+0  96197-2 0  9993",
    "line2": "2 51628  87.8823  30.3321 0001748  63.1113 297.0193 13.10399338213228"
  },
  {
    "name": "ONEWEB-0428",
    "noradId": "51629",
    "line1": "1 51629U 22012H   26197.56197933 -.00000663  00000+0 -19356-2 0  9990",
    "line2": "2 51629  87.8812  30.4193 0001802  88.2477 271.8857 13.10374536213137"
  },
  {
    "name": "ONEWEB-0431",
    "noradId": "51630",
    "line1": "1 51630U 22012J   26197.98945622  .00000641  00000+0  18006-2 0  9999",
    "line2": "2 51630  87.8817  30.3269 0002411  96.4788 263.6614 13.10371637213241"
  },
  {
    "name": "ONEWEB-0434",
    "noradId": "51631",
    "line1": "1 51631U 22012K   26197.58590002  .00000095  00000+0  23671-3 0  9992",
    "line2": "2 51631  87.8824  30.4337 0001530  68.6974 291.4317 13.10377440213175"
  },
  {
    "name": "ONEWEB-0435",
    "noradId": "51632",
    "line1": "1 51632U 22012L   26197.97432825  .00000386  00000+0  10686-2 0  9998",
    "line2": "2 51632  87.8816  30.3398 0001895  98.2886 261.8456 13.10378952213217"
  },
  {
    "name": "ONEWEB-0436",
    "noradId": "51633",
    "line1": "1 51633U 22012M   26197.90325257 -.00000021  00000+0 -86351-4 0  9994",
    "line2": "2 51633  87.9156 359.9358 0001931 100.0666 260.0683 13.17647515217590"
  },
  {
    "name": "ONEWEB-0438",
    "noradId": "51634",
    "line1": "1 51634U 22012N   26197.95903441 -.00000560  00000+0 -16411-2 0  9993",
    "line2": "2 51634  87.8816  30.3472 0001792  80.3562 279.7767 13.10376261213248"
  },
  {
    "name": "ONEWEB-0439",
    "noradId": "51635",
    "line1": "1 51635U 22012P   26197.96244089 -.00000211  00000+0 -63975-3 0  9992",
    "line2": "2 51635  87.8820  30.3341 0001749  86.3466 273.7862 13.10377572213224"
  },
  {
    "name": "ONEWEB-0442",
    "noradId": "51636",
    "line1": "1 51636U 22012Q   26197.89566613 -.00000032  00000+0 -11635-3 0  9992",
    "line2": "2 51636  87.9146 359.9678 0001677  74.8591 285.2726 13.17650541217588"
  },
  {
    "name": "ONEWEB-0443",
    "noradId": "51637",
    "line1": "1 51637U 22012R   26197.45944516  .00000039  00000+0  68228-4 0  9993",
    "line2": "2 51637  87.9147   0.0553 0001529  98.5097 261.6208 13.17647791217571"
  },
  {
    "name": "ONEWEB-0444",
    "noradId": "51638",
    "line1": "1 51638U 22012S   26197.95224661 -.00000788  00000+0 -22924-2 0  9995",
    "line2": "2 51638  87.8819  30.3348 0001661  90.9393 269.1924 13.10374669213238"
  },
  {
    "name": "ONEWEB-0445",
    "noradId": "51639",
    "line1": "1 51639U 22012T   26197.97261862  .00000299  00000+0  82155-3 0  9990",
    "line2": "2 51639  87.8825  30.3207 0001937  85.4546 274.6802 13.10379414213245"
  },
  {
    "name": "ONEWEB-0446",
    "noradId": "51640",
    "line1": "1 51640U 22012U   26197.56875828 -.00000489  00000+0 -14378-2 0  9994",
    "line2": "2 51640  87.8816  30.4283 0002149  82.6818 277.4553 13.10373389213170"
  },
  {
    "name": "ONEWEB-0448",
    "noradId": "51641",
    "line1": "1 51641U 22012V   26197.95564019 -.00000759  00000+0 -22106-2 0  9993",
    "line2": "2 51641  87.8816  30.3467 0001795  87.7602 272.3731 13.10375534213195"
  },
  {
    "name": "ONEWEB-0449",
    "noradId": "51642",
    "line1": "1 51642U 22012W   26197.96073340 -.00000295  00000+0 -88010-3 0  9999",
    "line2": "2 51642  87.8823  30.3331 0001831  67.9848 292.1473 13.10376644213205"
  },
  {
    "name": "ONEWEB-0451",
    "noradId": "51643",
    "line1": "1 51643U 22012X   26197.89987036  .00000008  00000+0 -11529-4 0  9991",
    "line2": "2 51643  87.9158 359.9350 0001688  89.2489 270.8836 13.17650964217574"
  },
  {
    "name": "ONEWEB-0452",
    "noradId": "51644",
    "line1": "1 51644U 22012Y   26197.51850912 -.00000018  00000+0 -79511-4 0  9990",
    "line2": "2 51644  87.9148   0.0449 0001554  92.5247 267.6062 13.17647432217535"
  },
  {
    "name": "ONEWEB-0456",
    "noradId": "51646",
    "line1": "1 51646U 22012AA  26197.96921654  .00000150  00000+0  39214-3 0  9993",
    "line2": "2 51646  87.8832  30.3204 0001808  92.2780 267.8554 13.10375503213244"
  },
  {
    "name": "ONEWEB-0457",
    "noradId": "51647",
    "line1": "1 51647U 22012AB  26197.56523144 -.00000871  00000+0 -25304-2 0  9998",
    "line2": "2 51647  87.8816  30.4164 0002094  79.3552 280.7811 13.10374300213192"
  },
  {
    "name": "ONEWEB-0458",
    "noradId": "51648",
    "line1": "1 51648U 22012AC  26197.96838137  .00000107  00000+0  26998-3 0  9995",
    "line2": "2 51648  87.8823  30.3243 0001629  86.7201 273.4112 13.10376261213207"
  },
  {
    "name": "ONEWEB-0461",
    "noradId": "51649",
    "line1": "1 51649U 22012AD  26198.14793514  .00000068  00000+0  14250-3 0  9990",
    "line2": "2 51649  87.9158 359.8990 0001924  90.3092 269.8260 13.17650544217837"
  },
  {
    "name": "ONEWEB-0463",
    "noradId": "51650",
    "line1": "1 51650U 22012AE  26197.90156318 -.00000019  00000+0 -82560-4 0  9998",
    "line2": "2 51650  87.9147 359.9679 0001969  90.6394 269.4963 13.17650629217581"
  },
  {
    "name": "ONEWEB-0464",
    "noradId": "51651",
    "line1": "1 51651U 22012AF  26197.58405348 -.00000008  00000+0 -58395-4 0  9990",
    "line2": "2 51651  87.8817  30.4220 0001604  94.2141 265.9169 13.10375512213172"
  },
  {
    "name": "ONEWEB-0468",
    "noradId": "51652",
    "line1": "1 51652U 22012AG  26197.97091814  .00000230  00000+0  62362-3 0  9996",
    "line2": "2 51652  87.8815  30.3378 0001699  94.4866 265.6455 13.10375156213207"
  },
  {
    "name": "ONEWEB-0473",
    "noradId": "51653",
    "line1": "1 51653U 22012AH  26197.95735198 -.00000427  00000+0 -12600-2 0  9994",
    "line2": "2 51653  87.8816  30.3430 0001873  90.0196 270.1146 13.10375960213201"
  },
  {
    "name": "ONEWEB-0474",
    "noradId": "51654",
    "line1": "1 51654U 22012AJ  26197.56706727 -.00000659  00000+0 -19250-2 0  9993",
    "line2": "2 51654  87.8824  30.4078 0001580  94.8697 265.2611 13.10374712213142"
  },
  {
    "name": "ONEWEB-0475",
    "noradId": "51655",
    "line1": "1 51655U 22012AK  26197.45776669  .00000077  00000+0  16443-3 0  9998",
    "line2": "2 51655  87.9149   0.0494 0001472 113.3559 246.7727 13.17649203217540"
  },
  {
    "name": "ONEWEB-0490",
    "noradId": "54113",
    "line1": "1 54113U 22138A   26197.77894696  .00000088  00000+0  18856-3 0  9997",
    "line2": "2 54113  87.9192 299.0762 0002083 105.2011 254.9352 13.19726432180737"
  },
  {
    "name": "ONEWEB-0492",
    "noradId": "54114",
    "line1": "1 54114U 22138B   26197.80420760 -.00000040  00000+0 -13349-3 0  9991",
    "line2": "2 54114  87.9185 299.0705 0002264 103.9064 256.2320 13.19724089180748"
  },
  {
    "name": "ONEWEB-0495",
    "noradId": "54115",
    "line1": "1 54115U 22138C   26197.78210772  .00000045  00000+0  79612-4 0  9998",
    "line2": "2 54115  87.9186 299.0776 0002272 117.2279 242.9086 13.19726424180727"
  },
  {
    "name": "ONEWEB-0497",
    "noradId": "54116",
    "line1": "1 54116U 22138D   26197.79472868  .00000024  00000+0  26488-4 0  9996",
    "line2": "2 54116  87.9192 299.0690 0002043 102.9801 257.1560 13.19723723180711"
  }
]